     2.100          NAVIGATION                              RINEX VERSION / TYPE
fic2rin                                 01/04/2009 01:20:13 PGM / RUN BY / DATE
                                                            END OF HEADER
 3 09  1  3  1 59 44.0  .333512201905D-03  .522959453519D-11  .000000000000D+00
     .600000000000D+01 -.270312500000D+02  .517235830663D-08  .213456729026D+01
    -.145286321640D-05  .115728015080D-01  .112410634756D-04  .515372938156D+04
     .525584000000D+06 -.134110450745D-06  .107568988986D+01 -.245869159698D-06
     .925966291173D+00  .144062500000D+03  .887472619917D+00 -.825748681461D-08
     .185722021782D-10  .100000000000D+01  .151200000000D+04  .000000000000D+00
     .240000000000D+01  .000000000000D+00 -.419095158577D-08  .600000000000D+01
     .518886000000D+06  .400000000000D+01
22 09  1  3  1 59 44.0  .207232311368D-03 -.454747350886D-12  .000000000000D+00
     .700000000000D+01 -.110937500000D+02  .508021161121D-08 -.267868253322D+01
    -.584870576859D-06  .498120323755D-02  .631064176559D-05  .515366761589D+04
     .525584000000D+06  .763684511185D-07 -.296412371780D+01  .502914190292D-07
     .942466298419D+00  .246968750000D+03 -.181139026694D+01 -.834820487910D-08
    -.294655130712D-09  .100000000000D+01  .151200000000D+04  .000000000000D+00
     .240000000000D+01  .000000000000D+00 -.181607902050D-07  .700000000000D+01
     .519096000000D+06  .400000000000D+01
 1 09  1  3  1 59 44.0 -.300407409668D-03 -.547970557818D-10  .000000000000D+00
     .100000000000D+01 -.912500000000D+01  .499806533234D-08 -.259995052923D+00
    -.424683094025D-06  .976869487204D-02  .110119581223D-04  .515375552177D+04
     .525584000000D+06 -.175088644028D-06  .111727202696D+01  .409781932831D-07
     .935194352084D+00  .156218750000D+03 -.148588055639D+01 -.835999108433D-08
     .603596570791D-10  .100000000000D+01  .151200000000D+04  .000000000000D+00
     .240000000000D+01  .630000000000D+02 -.232830643654D-08  .100000000000D+01
     .521706000000D+06  .400000000000D+01
14 09  1  3  1 59 44.0 -.173476990312D-03  .511590769747D-11  .000000000000D+00
     .110000000000D+02  .146875000000D+02  .368051045089D-08  .274057756579D+01
     .754371285439D-06  .446536566596D-02  .986270606518D-05  .515356419754D+04
     .525584000000D+06  .167638063431D-07 -.192071200061D+01 -.651925802231D-07
     .988832268330D+00  .201250000000D+03 -.210347384423D+01 -.762353183642D-08
    -.389301930274D-10  .100000000000D+01  .151200000000D+04  .000000000000D+00
     .240000000000D+01  .000000000000D+00 -.931322574615D-08  .110000000000D+02
     .523206000000D+06  .400000000000D+01
23 09  1  3  1 59 44.0  .384225975722D-03  .909494701773D-12  .000000000000D+00
     .600000000000D+01  .337500000000D+01  .418374569837D-08  .224203455728D+01
     .339001417160D-06  .576863891911D-02  .968948006630D-05  .515366316032D+04
     .525584000000D+06 -.186264514923D-08 -.195070460078D+01  .931322574615D-07
     .970903339758D+00  .199937500000D+03  .288539966916D+01 -.790175771135D-08
    -.714315468392D-10  .100000000000D+01  .151200000000D+04  .000000000000D+00
     .240000000000D+01  .000000000000D+00 -.200234353542D-07  .600000000000D+01
     .523206000000D+06  .400000000000D+01
 1 09  1  3  3 59 44.0 -.300801824778D-03 -.547970557818D-10  .000000000000D+00
     .200000000000D+01 -.120625000000D+02  .507056835238D-08  .790106683732D+00
    -.709667801857D-06  .976797309704D-02  .107269734144D-04  .515375435257D+04
     .532784000000D+06 -.113621354103D-06  .111721219946D+01 -.102445483208D-06
     .935194273087D+00  .164375000000D+03 -.148584693853D+01 -.837392023596D-08
    -.357157734196D-10  .100000000000D+01  .151200000000D+04  .000000000000D+00
     .240000000000D+01  .630000000000D+02 -.232830643654D-08  .200000000000D+01
     .525606000000D+06  .400000000000D+01
 3 09  1  3  3 59 44.0  .333550386131D-03  .522959453519D-11  .000000000000D+00
     .380000000000D+02 -.161562500000D+02  .505163899247D-08 -.309847170515D+01
    -.908970832825D-06  .115716255968D-01  .111591070890D-04  .515373134613D+04
     .532784000000D+06  .558793544769D-07  .107563153114D+01 -.143423676491D-06
     .925967037261D+00  .144000000000D+03  .887477231035D+00 -.808926552181D-08
    -.285726187357D-11  .100000000000D+01  .151200000000D+04  .000000000000D+00
     .240000000000D+01  .000000000000D+00 -.419095158577D-08  .380000000000D+02
     .525606000000D+06  .400000000000D+01
14 09  1  3  3 59 44.0 -.173439737409D-03  .511590769747D-11  .000000000000D+00
     .120000000000D+02  .159375000000D+02  .375122768226D-08 -.249250996778D+01
     .901520252228D-06  .446611444931D-02  .946596264839D-05  .515356265640D+04
     .532784000000D+06  .782310962677D-07 -.192076727258D+01 -.149011611938D-07
     .988832094243D+00  .211281250000D+03 -.210332964001D+01 -.764603277367D-08
     .192865176466D-10  .100000000000D+01  .151200000000D+04  .000000000000D+00
     .240000000000D+01  .000000000000D+00 -.931322574615D-08  .120000000000D+02
     .525606000000D+06  .400000000000D+01
22 09  1  3  3 59 44.0  .207229051739D-03 -.454747350886D-12  .000000000000D+00
     .800000000000D+01 -.116250000000D+02  .507306845652D-08 -.162847905353D+01
    -.542029738426D-06  .498118868563D-02  .629760324955D-05  .515366774940D+04
     .532784000000D+06  .465661287308D-07 -.296418379984D+01  .109896063805D-06
     .942464171336D+00  .247312500000D+03 -.181140516091D+01 -.836927718542D-08
    -.290369237901D-09  .100000000000D+01  .151200000000D+04  .000000000000D+00
     .240000000000D+01  .000000000000D+00 -.181607902050D-07  .800000000000D+01
     .525606000000D+06  .400000000000D+01
23 09  1  3  3 59 44.0  .384232494980D-03  .909494701773D-12  .000000000000D+00
     .240000000000D+02  .406250000000D+01  .418410285611D-08 -.299101421335D+01
     .277534127235D-06  .576916628052D-02  .100433826447D-04  .515366244125D+04
     .532784000000D+06 -.596046447754D-07 -.195076154340D+01  .204890966415D-07
     .970903243206D+00  .192593750000D+03  .288544787085D+01 -.784139805428D-08
    -.260725145963D-10  .100000000000D+01  .151200000000D+04  .000000000000D+00
     .240000000000D+01  .000000000000D+00 -.200234353542D-07  .240000000000D+02
     .525606000000D+06  .400000000000D+01
 2 09  1  3  4  0  0.0  .163565389812D-03 -.193267624127D-11  .000000000000D+00
     .730000000000D+02  .590312500000D+02  .500235122515D-08 -.275027859251D+01
     .329501926899D-05  .889574142639D-02  .690855085850D-05  .515359732437D+04
     .532800000000D+06 -.137835741043D-06  .222208087840D+01  .540167093277D-07
     .941805812850D+00  .234125000000D+03  .269382009267D+01 -.820069873488D-08
     .225366530278D-09  .100000000000D+01  .151200000000D+04  .000000000000D+00
     .240000000000D+01  .000000000000D+00 -.172294676304D-07  .730000000000D+02
     .525606000000D+06  .400000000000D+01
 4 09  1  3  4  0  0.0 -.286437105387D-03 -.131876731757D-10  .000000000000D+00
     .180000000000D+02  .505625000000D+02  .517128683343D-08  .933402079943D-01
     .279210507870D-05  .860887637828D-02  .675953924656D-05  .515364847946D+04
     .532800000000D+06  .596046447754D-07  .224064187683D+01  .651925802231D-07
     .941065833775D+00  .236812500000D+03  .459853717313D+00 -.851178312136D-08
     .185364864048D-09  .100000000000D+01  .151200000000D+04  .000000000000D+00
     .240000000000D+01  .000000000000D+00 -.605359673500D-08  .180000000000D+02
     .525606000000D+06  .400000000000D+01
 5 09  1  3  4  0  0.0 -.481545459479D-03 -.657109922031D-10  .000000000000D+00
     .390000000000D+02 -.581250000000D+02  .512307053931D-08 -.319387320861D+00
    -.304542481899D-05  .936314370483D-02  .598467886448D-05  .515364369392D+04
     .532800000000D+06 -.745058059692D-07  .446729040972D-01  .745058059692D-07
     .945027475913D+00  .256750000000D+03  .129637084220D+01 -.860464413225D-08
    -.116790579082D-09  .100000000000D+01  .151200000000D+04  .000000000000D+00
     .485000000000D+01  .000000000000D+00 -.419095158577D-08  .390000000000D+02
     .525606000000D+06  .400000000000D+01
 6 09  1  3  4  0  0.0  .104153528810D-03 -.113686837722D-10  .000000000000D+00
     .190000000000D+02 -.412500000000D+01  .498056460336D-08 -.548802605111D+00
    -.210478901863D-06  .561351643410D-02  .112354755402D-04  .515371674919D+04
     .532800000000D+06 -.745058059692D-07  .114205678652D+01  .800937414169D-07
     .933440933584D+00  .150781250000D+03 -.149166235827D+01 -.829677416538D-08
     .535736601294D-10  .100000000000D+01  .151200000000D+04  .000000000000D+00
     .240000000000D+01  .000000000000D+00 -.465661287308D-08  .190000000000D+02
     .525606000000D+06  .400000000000D+01
 7 09  1  3  4  0  0.0  .234697945416D-04 -.113686837722D-12  .000000000000D+00
     .550000000000D+02  .165625000000D+02  .461626371448D-08  .173359909776D+01
     .994652509689D-06  .231025379617D-02  .594370067120D-05  .515368148422D+04
     .532800000000D+06  .894069671631D-07 -.907818252583D+00 -.149011611938D-07
     .965377336412D+00  .266375000000D+03  .290504530284D+01 -.825462955274D-08
     .231438211759D-09  .100000000000D+01  .151200000000D+04  .000000000000D+00
     .240000000000D+01  .000000000000D+00 -.107102096081D-07  .550000000000D+02
     .525606000000D+06  .400000000000D+01
 8 09  1  3  4  0  0.0 -.184776727110D-03 -.159161572810D-11  .000000000000D+00
     .970000000000D+02  .881250000000D+01  .411338562474D-08  .105855728612D+01
     .530853867531D-06  .105313822860D-01  .562146306038D-05  .515369117928D+04
     .532800000000D+06  .111758708954D-06 -.850440355546D+00  .707805156708D-07
     .986581415259D+00  .279687500000D+03  .296621550194D+01 -.799426156451D-08
     .127148153374D-09  .100000000000D+01  .151200000000D+04  .000000000000D+00
     .340000000000D+01  .000000000000D+00 -.419095158577D-08  .970000000000D+02
     .525606000000D+06  .400000000000D+01
